[{"OBJECT_NAME":"OBJECT AC","OBJECT_ID":"2025-313AC","EPOCH":"2026-03-09T21:09:33.957792","MEAN_MOTION":15.21172944,"ECCENTRICITY":0.00146625,"INCLINATION":97.3999,"RA_OF_ASC_NODE":145.117,"ARG_OF_PERICENTER":358.5779,"MEAN_ANOMALY":1.5413,"EPHEMERIS_TYPE":0,"CLASSIFICATION_TYPE":"U","NORAD_CAT_ID":67274,"ELEMENT_SET_NO":999,"REV_AT_EPOCH":1084,"BSTAR":0.00041099794,"MEAN_MOTION_DOT":9.12e-5,"MEAN_MOTION_DDOT":0},{"OBJECT_NAME":"COSMOS 2251 DEB","OBJECT_ID":"1993-036N","EPOCH":"2026-03-09T20:39:34.848000","MEAN_MOTION":15.17003756,"ECCENTRICITY":0.00564486,"INCLINATION":74.0035,"RA_OF_ASC_NODE":352.1163,"ARG_OF_PERICENTER":60.1769,"MEAN_ANOMALY":300.5022,"EPHEMERIS_TYPE":0,"CLASSIFICATION_TYPE":"U","NORAD_CAT_ID":33765,"ELEMENT_SET_NO":999,"REV_AT_EPOCH":90936,"BSTAR":0.0026022202,"MEAN_MOTION_DOT":0.00053945,"MEAN_MOTION_DDOT":0}]
